BEIDOU-2 IGSO-1         
1 36828U 10036A   26129.56207134 -.00000068  00000+0  00000+0 0  9998
2 36828  54.2946 163.3091 0058712 224.6236 148.8612  1.00281802 57712
BEIDOU-2 G4             
1 37210U 10057A   26129.54865509 -.00000102  00000+0  00000+0 0  9990
2 37210   3.5512  69.1574 0005575 213.4887 302.2042  1.00273291 56906
BEIDOU-2 IGSO-2         
1 37256U 10068A   26126.82717209 -.00000199  00000+0  00000+0 0  9999
2 37256  47.6271 272.3432 0052277 211.0703 144.6242  1.00297293 56379
BEIDOU-2 IGSO-3         
1 37384U 11013A   26127.41762512 -.00000185  00000+0  00000+0 0  9990
2 37384  62.3544  40.5383 0033842 187.1430 256.1700  1.00278193 55257
BEIDOU-2 IGSO-4         
1 37763U 11038A   26127.08566644  .00000028  00000+0  00000+0 0  9994
2 37763  54.5895 166.0525 0159176 231.8688 309.0637  1.00254387 54236
BEIDOU-2 IGSO-5         
1 37948U 11073A   26128.86969726 -.00000159  00000+0  00000+0 0  9999
2 37948  47.7531 272.0313 0111459 220.7494 139.9104  1.00257961 52743
BEIDOU-2 G5             
1 38091U 12008A   26129.49855497  .00000068  00000+0  00000+0 0  9995
2 38091   3.4774  69.9129 0011357 272.0236 123.5393  1.00271022 51987
BEIDOU-2 M3             
1 38250U 12018A   26128.45381045 -.00000038  00000+0  00000+0 0  9999
2 38250  55.7928 306.2139 0019668 277.1817  82.5892  1.86230179 95200
BEIDOU-2 M4             
1 38251U 12018B   26128.92300840 -.00000036  00000+0  00000+0 0  9994
2 38251  55.6931 305.4151 0010884 282.3733  77.4996  1.86229854 95212
BEIDOU-2 M6             
1 38775U 12050B   26129.16983613 -.00000020  00000+0  00000+0 0  9996
2 38775  56.5118  64.1842 0014378 350.7322   9.2308  1.86230974 92584
BEIDOU-2 G6             
1 38953U 12059A   26129.41604278 -.00000166  00000+0  00000+0 0  9999
2 38953   4.3235  73.9225 0010810 319.6812  67.4713  1.00273264 49528
BEIDOU-3S IGSO-1S       
1 40549U 15019A   26129.41829611 -.00000160  00000+0  00000+0 0  9996
2 40549  49.2705 295.9267 0037597 190.3668 345.8582  1.00259147 40687
BEIDOU-3S M2S           
1 40748U 15037A   26128.58906300 -.00000037  00000+0  00000+0 0  9998
2 40748  54.9079 303.4092 0007455 268.2126  91.6939  1.86232348 73383
BEIDOU-3S M1S           
1 40749U 15037B   26129.33819546 -.00000036  00000+0  00000+0 0  9997
2 40749  54.9031 303.3710 0004155  55.4941 304.5384  1.86255031 73400
BEIDOU-3S IGSO-2S       
1 40938U 15053A   26128.83844315 -.00000148  00000+0  00000+0 0  9995
2 40938  49.2857 259.2498 0063889 191.0081 174.8755  1.00269008 38963
BEIDOU-2 IGSO-6         
1 41434U 16021A   26128.80427500 -.00000155  00000+0  00000+0 0  9991
2 41434  60.1731  38.4330 0057590 232.4747 340.0349  1.00266779 37081
BEIDOU-2 G7             
1 41586U 16037A   26129.56921927 -.00000344  00000+0  00000+0 0  9992
2 41586   1.6244  68.9409 0007706 356.9811 116.9730  1.00272472  6505
BEIDOU-3 M1             
1 43001U 17069A   26128.93521896 -.00000019  00000+0  00000+0 0  9992
2 43001  56.6594  64.3771 0011792 319.3638  40.5376  1.86231526 57872
BEIDOU-3 M2             
1 43002U 17069B   26128.33767399 -.00000020  00000+0  00000+0 0  9999
2 43002  56.6766  64.4251 0022120  73.1957 287.0348  1.86210859 57855
BEIDOU-3 M7             
1 43107U 18003A   26129.15243528 -.00000038  00000+0  00000+0 0  9997
2 43107  54.3640 303.6756 0005265  84.0120 276.0413  1.86228387 56629
BEIDOU-3 M8             
1 43108U 18003B   26128.56086074 -.00000039  00000+0  00000+0 0  9994
2 43108  54.3576 303.6780 0002137 281.3024  78.6657  1.86231291 56629
BEIDOU-3 M4             
1 43207U 18018A   26127.92958346 -.00000022  00000+0  00000+0 0  9991
2 43207  56.6178  64.4755 0007742   4.8904 355.1044  1.86231531 55997
BEIDOU-3 M3             
1 43208U 18018B   26129.06995149 -.00000019  00000+0  00000+0 0  9997
2 43208  56.6178  64.4424 0009730 331.7782  28.1584  1.86231351 56016
BEIDOU-3 M9             
1 43245U 18029A   26128.75062547 -.00000037  00000+0  00000+0 0  9992
2 43245  54.2314 301.3274 0000821  93.5762 266.4233  1.86228510 55168
BEIDOU-3 M10            
1 43246U 18029B   26129.22214498 -.00000037  00000+0  00000+0 0  9990
2 43246  54.2281 301.3374 0004700  36.2915 323.7313  1.86229463 55150
BEIDOU-2 IGSO-7         
1 43539U 18057A   26128.53901286 -.00000029  00000+0  00000+0 0  9998
2 43539  55.1875 163.4048 0103898 237.7189 131.6026  1.00263483 28735
BEIDOU-3 M5             
1 43581U 18062A   26128.37243906  .00000037  00000+0  00000+0 0  9999
2 43581  54.0835 183.6581 0004699 288.6287  71.3975  1.86228855 52890
BEIDOU-3 M6             
1 43582U 18062B   26129.30962619  .00000044  00000+0  00000+0 0  9991
2 43582  54.0831 183.6153 0004808  18.9796 341.1148  1.86227992 52917
BEIDOU-3 M12            
1 43602U 18067A   26129.24802271  .00000046  00000+0  00000+0 0  9991
2 43602  54.1783 182.3610 0007840  32.7480 327.3771  1.86227965 52394
BEIDOU-3 M11            
1 43603U 18067B   26129.38297212  .00000047  00000+0  00000+0 0  9991
2 43603  54.1758 182.3202 0004460  18.1352 341.9572  1.86227404 52428
BEIDOU-3 M13            
1 43622U 18072A   26128.26413194 -.00000022  00000+0  00000+0 0  9997
2 43622  56.5916  63.9763 0008552 319.8985  40.0271  1.86231481 51912
